FLOCK 4BE-14            
1 60517U 24149BB  26068.71404192  .00017927  00000+0  48609-3 0  9994
2 60517  97.3738 151.8410 0003273 287.2070  72.8817 15.37684247 87026
KUIPER-00270            
1 67791U 26030AD  26068.77956772  .00031543  00000+0  93017-3 0  9991
2 67791  51.8805 218.9166 0010680  56.4163 303.7841 15.34680420  5107
