[{"OBJECT_NAME":"FLOCK 4BE-14","OBJECT_ID":"2024-149BB","EPOCH":"2026-03-09T17:08:13.221888","MEAN_MOTION":15.37684247,"ECCENTRICITY":0.00032729,"INCLINATION":97.3738,"RA_OF_ASC_NODE":151.841,"ARG_OF_PERICENTER":287.207,"MEAN_ANOMALY":72.8817,"EPHEMERIS_TYPE":0,"CLASSIFICATION_TYPE":"U","NORAD_CAT_ID":60517,"ELEMENT_SET_NO":999,"REV_AT_EPOCH":8702,"BSTAR":0.00048609168,"MEAN_MOTION_DOT":0.00017927,"MEAN_MOTION_DDOT":0},{"OBJECT_NAME":"KUIPER-00270","OBJECT_ID":"2026-030AD","EPOCH":"2026-03-09T18:42:34.651008","MEAN_MOTION":15.3468042,"ECCENTRICITY":0.00106803,"INCLINATION":51.8805,"RA_OF_ASC_NODE":218.9166,"ARG_OF_PERICENTER":56.4163,"MEAN_ANOMALY":303.7841,"EPHEMERIS_TYPE":0,"CLASSIFICATION_TYPE":"U","NORAD_CAT_ID":67791,"ELEMENT_SET_NO":999,"REV_AT_EPOCH":510,"BSTAR":0.00093017146,"MEAN_MOTION_DOT":0.00031543,"MEAN_MOTION_DDOT":0}]
